{
  "type": "FeatureCollection",
  "name": "ciudades_mexico",
  "features": [
    {
      "type": "Feature",
      "properties": {
        "nombre": "Ciudad de México",
        "poblacion_hab": 9209944,
        "elevacion_msnm": 2240,
        "region": "Centro",
        "clima": "Templado"
      },
      "geometry": { "type": "Point", "coordinates": [-99.1332, 19.4326] }
    },
    {
      "type": "Feature",
      "properties": {
        "nombre": "Guadalajara",
        "poblacion_hab": 5385833,
        "elevacion_msnm": 1566,
        "region": "Occidente",
        "clima": "Semiárido"
      },
      "geometry": { "type": "Point", "coordinates": [-103.3496, 20.6597] }
    },
    {
      "type": "Feature",
      "properties": {
        "nombre": "Mérida",
        "poblacion_hab": 1177629,
        "elevacion_msnm": 10,
        "region": "Península",
        "clima": "Cálido subhúmedo"
      },
      "geometry": { "type": "Point", "coordinates": [-89.6123, 20.9674] }
    },
    {
      "type": "Feature",
      "properties": {
        "nombre": "Cancún",
        "poblacion_hab": 888797,
        "elevacion_msnm": 8,
        "region": "Península",
        "clima": "Tropical"
      },
      "geometry": { "type": "Point", "coordinates": [-86.8467, 21.1619] }
    },
    {
      "type": "Feature",
      "properties": {
        "nombre": "Tuxtla Gutiérrez",
        "poblacion_hab": 604147,
        "elevacion_msnm": 522,
        "region": "Sureste",
        "clima": "Cálido subhúmedo"
      },
      "geometry": { "type": "Point", "coordinates": [-93.1153, 16.7510] }
    },
    {
      "type": "Feature",
      "properties": {
        "nombre": "Monterrey",
        "poblacion_hab": 5341563,
        "elevacion_msnm": 540,
        "region": "Noreste",
        "clima": "Semiárido"
      },
      "geometry": { "type": "Point", "coordinates": [-100.3161, 25.6866] }
    }
  ]
}
